[{"OBJECT_NAME":"ORBCOMM FM114","OBJECT_ID":"2015-081A","EPOCH":"2026-03-06T12:25:35.611392","MEAN_MOTION":14.58724342,"ECCENTRICITY":0.00012421,"INCLINATION":47.0042,"RA_OF_ASC_NODE":127.3664,"ARG_OF_PERICENTER":95.304,"MEAN_ANOMALY":264.7988,"EPHEMERIS_TYPE":0,"CLASSIFICATION_TYPE":"U","NORAD_CAT_ID":41179,"ELEMENT_SET_NO":999,"REV_AT_EPOCH":54276,"BSTAR":0.0002186975,"MEAN_MOTION_DOT":8.6e-6,"MEAN_MOTION_DDOT":0},{"OBJECT_NAME":"ORBCOMM FM119","OBJECT_ID":"2015-081B","EPOCH":"2026-03-06T09:07:07.851936","MEAN_MOTION":14.58667361,"ECCENTRICITY":0.00010082,"INCLINATION":47.0012,"RA_OF_ASC_NODE":37.3761,"ARG_OF_PERICENTER":223.884,"MEAN_ANOMALY":136.1965,"EPHEMERIS_TYPE":0,"CLASSIFICATION_TYPE":"U","NORAD_CAT_ID":41180,"ELEMENT_SET_NO":999,"REV_AT_EPOCH":54399,"BSTAR":0.00025247877,"MEAN_MOTION_DOT":1.018e-5,"MEAN_MOTION_DDOT":0},{"OBJECT_NAME":"ORBCOMM FM105","OBJECT_ID":"2015-081C","EPOCH":"2026-03-06T06:51:23.001696","MEAN_MOTION":14.45490497,"ECCENTRICITY":0.0001158,"INCLINATION":47.0012,"RA_OF_ASC_NODE":68.466,"ARG_OF_PERICENTER":23.4168,"MEAN_ANOMALY":336.6765,"EPHEMERIS_TYPE":0,"CLASSIFICATION_TYPE":"U","NORAD_CAT_ID":41181,"ELEMENT_SET_NO":999,"REV_AT_EPOCH":53866,"BSTAR":0.0001510835,"MEAN_MOTION_DOT":3.79e-6,"MEAN_MOTION_DDOT":0},{"OBJECT_NAME":"ORBCOMM FM110","OBJECT_ID":"2015-081D","EPOCH":"2026-03-06T08:52:48.542592","MEAN_MOTION":14.58728387,"ECCENTRICITY":0.00034937,"INCLINATION":47.0015,"RA_OF_ASC_NODE":127.5379,"ARG_OF_PERICENTER":305.6773,"MEAN_ANOMALY":54.3787,"EPHEMERIS_TYPE":0,"CLASSIFICATION_TYPE":"U","NORAD_CAT_ID":41182,"ELEMENT_SET_NO":999,"REV_AT_EPOCH":54261,"BSTAR":0.00030943162,"MEAN_MOTION_DOT":1.288e-5,"MEAN_MOTION_DDOT":0},{"OBJECT_NAME":"ORBCOMM FM118","OBJECT_ID":"2015-081E","EPOCH":"2026-03-06T14:38:29.955552","MEAN_MOTION":14.58725445,"ECCENTRICITY":0.00039482,"INCLINATION":47.0036,"RA_OF_ASC_NODE":126.7177,"ARG_OF_PERICENTER":276.3048,"MEAN_ANOMALY":83.7388,"EPHEMERIS_TYPE":0,"CLASSIFICATION_TYPE":"U","NORAD_CAT_ID":41183,"ELEMENT_SET_NO":999,"REV_AT_EPOCH":54275,"BSTAR":0.00031234889,"MEAN_MOTION_DOT":1.301e-5,"MEAN_MOTION_DDOT":0},{"OBJECT_NAME":"ORBCOMM FM112","OBJECT_ID":"2015-081F","EPOCH":"2026-03-06T14:42:46.210176","MEAN_MOTION":14.58724069,"ECCENTRICITY":9.459e-5,"INCLINATION":47,"RA_OF_ASC_NODE":35.204,"ARG_OF_PERICENTER":73.9376,"MEAN_ANOMALY":286.1614,"EPHEMERIS_TYPE":0,"CLASSIFICATION_TYPE":"U","NORAD_CAT_ID":41184,"ELEMENT_SET_NO":999,"REV_AT_EPOCH":54397,"BSTAR":0.00026194354,"MEAN_MOTION_DOT":1.064e-5,"MEAN_MOTION_DDOT":0},{"OBJECT_NAME":"ORBCOMM FM113","OBJECT_ID":"2015-081G","EPOCH":"2026-03-06T07:35:26.143584","MEAN_MOTION":14.58724225,"ECCENTRICITY":5.721e-5,"INCLINATION":47.0017,"RA_OF_ASC_NODE":36.9745,"ARG_OF_PERICENTER":85.9592,"MEAN_ANOMALY":274.1359,"EPHEMERIS_TYPE":0,"CLASSIFICATION_TYPE":"U","NORAD_CAT_ID":41185,"ELEMENT_SET_NO":999,"REV_AT_EPOCH":54391,"BSTAR":0.00025070243,"MEAN_MOTION_DOT":1.011e-5,"MEAN_MOTION_DDOT":0},{"OBJECT_NAME":"ORBCOMM FM115","OBJECT_ID":"2015-081H","EPOCH":"2026-03-06T19:27:59.937696","MEAN_MOTION":14.63114348,"ECCENTRICITY":0.0001323,"INCLINATION":46.9971,"RA_OF_ASC_NODE":229.9464,"ARG_OF_PERICENTER":216.3328,"MEAN_ANOMALY":143.747,"EPHEMERIS_TYPE":0,"CLASSIFICATION_TYPE":"U","NORAD_CAT_ID":41186,"ELEMENT_SET_NO":999,"REV_AT_EPOCH":54622,"BSTAR":0.00026979,"MEAN_MOTION_DOT":1.224e-5,"MEAN_MOTION_DDOT":0},{"OBJECT_NAME":"ORBCOMM FM108","OBJECT_ID":"2015-081J","EPOCH":"2026-03-06T01:45:44.341632","MEAN_MOTION":14.58735896,"ECCENTRICITY":0.00021569,"INCLINATION":47.0056,"RA_OF_ASC_NODE":309.6634,"ARG_OF_PERICENTER":74.4398,"MEAN_ANOMALY":285.6726,"EPHEMERIS_TYPE":0,"CLASSIFICATION_TYPE":"U","NORAD_CAT_ID":41187,"ELEMENT_SET_NO":999,"REV_AT_EPOCH":54502,"BSTAR":0.00026396946,"MEAN_MOTION_DOT":1.073e-5,"MEAN_MOTION_DDOT":0},{"OBJECT_NAME":"ORBCOMM FM117","OBJECT_ID":"2015-081K","EPOCH":"2026-03-06T15:43:46.634304","MEAN_MOTION":14.58729973,"ECCENTRICITY":0.00024944,"INCLINATION":47.0018,"RA_OF_ASC_NODE":305.5802,"ARG_OF_PERICENTER":88.2098,"MEAN_ANOMALY":271.9073,"EPHEMERIS_TYPE":0,"CLASSIFICATION_TYPE":"U","NORAD_CAT_ID":41188,"ELEMENT_SET_NO":999,"REV_AT_EPOCH":54515,"BSTAR":0.00029090281,"MEAN_MOTION_DOT":1.2e-5,"MEAN_MOTION_DDOT":0},{"OBJECT_NAME":"ORBCOMM FM116","OBJECT_ID":"2015-081L","EPOCH":"2026-03-06T15:16:07.527072","MEAN_MOTION":14.58720337,"ECCENTRICITY":0.00025876,"INCLINATION":47.0032,"RA_OF_ASC_NODE":35.4523,"ARG_OF_PERICENTER":302.5093,"MEAN_ANOMALY":57.5543,"EPHEMERIS_TYPE":0,"CLASSIFICATION_TYPE":"U","NORAD_CAT_ID":41189,"ELEMENT_SET_NO":999,"REV_AT_EPOCH":54396,"BSTAR":0.00029710319,"MEAN_MOTION_DOT":1.229e-5,"MEAN_MOTION_DDOT":0}]
